STARLINK-31222          
1 58828U 24017C   24139.01791963  .00020333  00000+0  74423-3 0  9993
2 58828  53.1577  42.3511 0000521  28.9575 331.1454 15.28041076 18779
STARLINK-31258          
1 58829U 24017D   24139.01358205  .00003089  00000+0  12416-3 0  9995
2 58829  53.1591  42.3227 0001048  74.4374 285.6742 15.28009808 18778
STARLINK-31253          
1 58830U 24017E   24139.01323981  .00009599  00000+0  35857-3 0  9996
2 58830  53.1591  42.3231 0000737  81.8813 278.2270 15.28038563 18773
STARLINK-31232          
1 58831U 24017F   24139.00889656 -.00004852  00000+0 -16270-3 0  9999
2 58831  53.1607  42.2958 0001015  92.0479 268.0637 15.28007264 18777
STARLINK-31263          
1 58832U 24017G   24139.00854693  .00000602  00000+0  34394-4 0  9998
2 58832  53.1612  42.2933 0001132 100.6520 259.4607 15.28030121 18881
STARLINK-31175          
1 58833U 24017H   24139.44841031  .00139790  00000+0  38996-2 0  9990
2 58833  53.1621  39.3496 0007385 201.6938 158.3753 15.35738517 18852
STARLINK-31171          
1 58834U 24017J   24139.46174256  .00029761  00000+0  10837-2 0  9991
2 58834  53.1618  40.1449 0001360  96.3835 263.7319 15.27992438 18842
STARLINK-31246          
1 58835U 24017K   24139.45740403  .00000124  00000+0  17153-4 0  9996
2 58835  53.1596  40.1149 0001347  88.2503 271.8651 15.28013754 18847
STARLINK-31251          
1 58836U 24017L   24139.45270860  .00008157  00000+0  30658-3 0  9990
2 58836  53.1625  40.0857 0001411  89.2147 270.9015 15.28046585 18957
STARLINK-31172          
1 58837U 24017M   24139.40955554  .00002888  00000+0  11687-3 0  9992
2 58837  53.1559  36.9729 0000802  80.5123 279.5967 15.28019899 18888
STARLINK-31249          
1 58838U 24017N   24139.45240523  .00032923  00000+0  11963-2 0  9990
2 58838  53.1611  40.0833 0000891  81.2214 278.8887 15.28012133 18840
STARLINK-31250          
1 58839U 24017P   24139.44803580  .00010545  00000+0  39253-3 0  9997
2 58839  53.1619  40.0563 0001819  65.9835 294.1355 15.28046571 18796
STARLINK-31248          
1 58840U 24017Q   24139.44336282  .00006486  00000+0  24660-3 0  9994
2 58840  53.1631  40.0268 0000970 126.6641 233.4448 15.28023917 18957
STARLINK-31236          
1 58841U 24017R   24139.44770295  .00000227  00000+0  20848-4 0  9993
2 58841  53.1616  40.0548 0001158 144.1708 215.9370 15.28025620 18840
STARLINK-31228          
1 58842U 24017S   24139.44303065 -.00000699  00000+0 -12580-4 0  9990
2 58842  53.1606  40.0259 0001219  86.0181 274.0959 15.28009795 18840
STARLINK-31280          
1 58843U 24017T   24139.11164529  .00004407  00000+0  17163-3 0  9995
2 58843  53.1602  41.5109 0001289 132.1228 227.9881 15.28025741 18793
STARLINK-31269          
1 58844U 24017U   24139.47080976  .00000251  00000+0  36936-4 0  9991
2 58844  53.1599  51.3626 0001417  91.6600 268.4552 15.04920352 18687
STARLINK-31264          
1 58845U 24017V   24139.16867960  .00028682  00000+0  20121-2 0  9999
2 58845  53.1585  52.3269 0001640  95.2072 264.9105 15.04976221 18645
STARLINK-31273          
1 58846U 24017W   24139.11130398  .00009617  00000+0  35922-3 0  9996
2 58846  53.1599  41.5131 0001251  42.7159 317.3937 15.28037928 18790
STARLINK-31262          
1 58847U 24017X   24139.03275520  .00015719  00000+0  11146-2 0  9996
2 58847  53.1588  53.5979 0001606  87.5484 272.5690 15.04936947 18616
STARLINK-31238          
1 58853U 24019A   24138.99507218 -.00000259  00000+0 -40973-7 0  9991
2 58853  43.0010  12.7880 0001620 268.5012  91.5653 15.25876349 18129
STARLINK-31158          
1 58854U 24019B   24139.34771755  .00076313  00000+0  28888-2 0  9999
2 58854  42.9989  11.9835 0003477 274.6123  85.4331 15.26001354 18163
STARLINK-31237          
1 58855U 24019C   24139.34320261  .00021792  00000+0  83927-3 0  9999
2 58855  43.0004  11.9725 0002463 273.8758  86.1811 15.25955133 18164
STARLINK-31244          
1 58856U 24019D   24139.36356612  .00016942  00000+0  65550-3 0  9994
2 58856  43.0016  12.1096 0001514 285.0043  75.0641 15.25936905 18164
STARLINK-31216          
1 58857U 24019E   24139.11968485  .00063214  00000+0  24024-2 0  9999
2 58857  43.0002  12.8456 0001868 273.6901  86.3737 15.25955720 18117
STARLINK-31226          
1 58858U 24019F   24139.35450606  .00023749  00000+0  91437-3 0  9999
2 58858  43.0001  12.0337 0002631 277.2934  82.7618 15.25924355 18165
STARLINK-31197          
1 58859U 24019G   24139.37260926  .00006854  00000+0  27155-3 0  9990
2 58859  43.0014  12.1869 0000653 258.1376 101.9402 15.25918353 18167
STARLINK-31213          
1 58860U 24019H   24138.99343159  .00019057  00000+0  73593-3 0  9995
2 58860  43.0001  14.5094 0001959 275.8465  84.2163 15.25934506 18105
STARLINK-31199          
1 58861U 24019J   24139.36129746  .00003900  00000+0  15876-3 0  9992
2 58861  43.0009  12.0871 0000571 270.8434  89.2351 15.25927538 18167
STARLINK-31200          
1 58862U 24019K   24139.34546507  .00023471  00000+0  90357-3 0  9991
2 58862  43.0004  11.9666 0001413 289.4102  70.6596 15.25935061 18162
STARLINK-31149          
1 58863U 24019L   24139.33429014  .00014476  00000+0  56171-3 0  9995
2 58863  43.0005  12.7608 0001689 254.1010 105.9655 15.25936259 18158
STARLINK-31242          
1 58864U 24019M   24139.37034727  .00002303  00000+0  97871-4 0  9992
2 58864  43.0033  12.1714 0001115 288.8793  71.1937 15.25910112 18166
STARLINK-31223          
1 58865U 24019N   24139.34094364  .00002768  00000+0  11561-3 0  9999
2 58865  43.0018  11.9447 0001327 319.2597  40.8155 15.25911323 18144
STARLINK-31219          
1 58866U 24019P   24139.12661500  .00061481  00000+0  23373-2 0  9998
2 58866  42.9998  13.7919 0002332 257.5838 102.4752 15.25955803 18108
STARLINK-31198          
1 58867U 24019Q   24139.61858403  .00021504  00000+0  82832-3 0  9991
2 58867  43.0037  10.5572 0002846 284.2534  75.8001 15.25955810 18181
STARLINK-31196          
1 58868U 24019R   24139.35905855  .00036616  00000+0  14037-2 0  9998
2 58868  43.0009  12.0678 0002947 240.9082 119.1474 15.25882748 18145
STARLINK-31203          
1 58869U 24019S   24138.98322307  .00133655  00000+0  50232-2 0  9990
2 58869  43.0033   9.2442 0001959 284.0567  76.0066 15.25935882 18167
STARLINK-31201          
1 58870U 24019T   24139.06795416  .00032202  00000+0  12349-2 0  9990
2 58870  42.9986  14.2050 0001226 226.0419 134.0331 15.25926027 18097
STARLINK-31214          
1 58871U 24019U   24138.99116655  .00009763  00000+0  38228-3 0  9995
2 58871  43.0008  14.4932 0001572 275.1695  84.8977 15.25936618 18085
STARLINK-31215          
1 58872U 24019V   24139.37713430 -.00000938  00000+0 -26011-4 0  9998
2 58872  43.0036  12.2231 0001624 249.7913 110.2764 15.25900564 18149
STARLINK-31177          
1 58873U 24019W   24139.33868075  .00000495  00000+0  28760-4 0  9990
2 58873  42.9993  11.9191 0001371 273.0601  87.0093 15.25900349 18163
STARLINK-30945          
1 58874U 24019X   24139.35224287  .00031992  00000+0  12260-2 0  9996
2 58874  43.0020  12.0022 0002089 292.9331  67.1299 15.25950823 18168
STARLINK-31212          
1 58875U 24019Y   24138.99797607  .00006580  00000+0  26130-3 0  9994
2 58875  43.0008  14.5440 0001776 261.2154  98.8496 15.25891858 18083
STARLINK-31306          
1 58876U 24020A   24139.32075570 -.00008793  00000+0 -30524-3 0  9995
2 58876  53.1560 150.6242 0001252  96.7293 263.3850 15.28013271 18132
STARLINK-31326          
1 58877U 24020B   24139.33962401 -.00002732  00000+0 -86040-4 0  9997
2 58877  53.1589 149.3208 0001603  81.4514 278.6667 15.27999883 16974
STARLINK-31300          
1 58878U 24020C   24139.44687198  .00011221  00000+0  41657-3 0  9992
2 58878  53.1581 149.9930 0001646  76.2344 283.8838 15.28066948 16971
STARLINK-31296          
1 58879U 24020D   24139.31175153  .00010920  00000+0  40614-3 0  9999
2 58879  53.1583 150.5685 0001337  98.5512 261.5639 15.28036129 16958
STARLINK-31328          
1 58880U 24020E   24139.39894403  .00008075  00000+0  30332-3 0  9999
2 58880  53.1600 143.9100 0001135  97.5842 262.5287 15.28080443 17059
STARLINK-31260          
1 58881U 24020F   24139.44221501  .00009026  00000+0  33784-3 0  9990
2 58881  53.1587 149.9577 0001478  84.3283 275.7885 15.28049244 16975
STARLINK-31323          
1 58882U 24020G   24139.43786956 -.00002871  00000+0 -91018-4 0  9998
2 58882  53.1593 149.9296 0001614  83.2892 276.8292 15.28013750 16974
STARLINK-31209          
1 58883U 24020H   24139.30672885  .00008385  00000+0  31489-3 0  9999
2 58883  53.1595 150.5325 0001391  92.4168 267.6991 15.28034394 16957
STARLINK-31315          
1 58884U 24020J   24139.22934584  .00112582  00000+0  27748-2 0  9995
2 58884  53.1596 135.0036 0002144 152.3765 207.7354 15.39710989 18168
STARLINK-31318          
1 58885U 24020K   24139.32567964 -.00000051  00000+0  10818-4 0  9991
2 58885  53.1579 149.9339 0001048  72.4040 287.7074 15.28018382 16969
STARLINK-31320          
1 58886U 24020L   24139.30240422  .00000425  00000+0  28026-4 0  9991
2 58886  53.1606 150.5096 0001414  95.2991 264.8170 15.28003200 16959
STARLINK-31321          
1 58887U 24020M   24139.29772471  .00025655  00000+0  93605-3 0  9990
2 58887  53.1597 150.4801 0000904  69.9758 290.1339 15.28006703 18114
STARLINK-30970          
1 58888U 24020N   24139.35400582  .00062747  00000+0  19317-2 0  9999
2 58888  53.1579 149.4245 0007423  55.1056 305.0643 15.33055701 16970
STARLINK-31007          
1 58889U 24020P   24139.29737181  .00015994  00000+0  58875-3 0  9996
2 58889  53.1605 150.4765 0001223 100.1475 259.9663 15.28024762 16952
STARLINK-31230          
1 58890U 24020Q   24138.48502114 -.00000758  00000+0 -13557-4 0  9997
2 58890  53.1620 153.9528 0001453  94.4426 265.6741 15.30013456 16831
STARLINK-31245          
1 58891U 24020R   24139.58335648 -.02183645  00000+0 -48726-1 0  9998
2 58891  53.1592 119.2805 0001304 131.0626 133.9259 15.46695894  5858
